{"type": "FeatureCollection", "features": [ {"type": "Feature", "properties": {"norad_id": 33841, "name": "COSMOS 2251 DEB", "group": "cosmos-2251-debris", "lat": 13.875195935248076, "lon": -79.42424748526884, "alt_km": 752.2379451410088, "timestamp": "2025-12-13T13:34:35.433390+00:00", "meta": {"OBJECT_NAME": "COSMOS 2251 DEB", "OBJECT_ID": "1993-036CJ", "EPOCH": "2025-12-12T22:50:52.482912", "MEAN_MOTION": 14.37861339, "ECCENTRICITY": 0.00205439, "INCLINATION": 74.0378, "RA_OF_ASC_NODE": 277.651, "ARG_OF_PERICENTER": 357.9744, "MEAN_ANOMALY": 81.133, "EPHEMERIS_TYPE": 0, "CLASSIFICATION_TYPE": "U", "NORAD_CAT_ID": 33841, "ELEMENT_SET_NO": 999, "REV_AT_EPOCH": 88117, "BSTAR": 0.00037404936, "MEAN_MOTION_DOT": 1.105e-05, "MEAN_MOTION_DDOT": 0}, "tle": {"line1": "1 33841U 93036CJ  25346.95199633  .00001105  00000+0  37405-3 0  9993", "line2": "2 33841  74.0378 277.6510 0020543 357.9744  81.1330 14.37861339881177"}}, "geometry": {"type": "Point", "coordinates": [-79.42424748526884, 13.875195935248076]}}, {"type": "Feature", "properties": {"norad_id": 33842, "name": "COSMOS 2251 DEB", "group": "cosmos-2251-debris", "lat": -69.39321100268873, "lon": 168.52641890458685, "alt_km": 731.3953761223593, "timestamp": "2025-12-13T13:34:35.433399+00:00", "meta": {"OBJECT_NAME": "COSMOS 2251 DEB", "OBJECT_ID": "1993-036CK", "EPOCH": "2025-12-12T17:57:29.886912", "MEAN_MOTION": 14.42697934, "ECCENTRICITY": 0.0047292, "INCLINATION": 74.0326, "RA_OF_ASC_NODE": 219.636, "ARG_OF_PERICENTER": 326.955, "MEAN_ANOMALY": 32.8653, "EPHEMERIS_TYPE": 0, "CLASSIFICATION_TYPE": "U", "NORAD_CAT_ID": 33842, "ELEMENT_SET_NO": 999, "REV_AT_EPOCH": 88337, "BSTAR": 0.00044914748, "MEAN_MOTION_DOT": 1.488e-05, "MEAN_MOTION_DDOT": 0}, "tle": {"line1": "1 33842U 93036CK  25346.74826258  .00001488  00000+0  44915-3 0  9999", "line2": "2 33842  74.0326 219.6360 0047292 326.9550  32.8653 14.42697934883370"}}, "geometry": {"type": "Point", "coordinates": [168.52641890458685, -69.39321100268873]}}, {"type": "Feature", "properties": {"norad_id": 33844, "name": "COSMOS 2251 DEB", "group": "cosmos-2251-debris", "lat": -7.750452345847189, "lon": -126.50017853636118, "alt_km": 796.9532243389058, "timestamp": "2025-12-13T13:34:35.433409+00:00", "meta": {"OBJECT_NAME": "COSMOS 2251 DEB", "OBJECT_ID": "1993-036CM", "EPOCH": "2025-12-12T15:28:08.224032", "MEAN_MOTION": 14.33716094, "ECCENTRICITY": 0.00470649, "INCLINATION": 74.067, "RA_OF_ASC_NODE": 52.9526, "ARG_OF_PERICENTER": 74.9418, "MEAN_ANOMALY": 40.0286, "EPHEMERIS_TYPE": 0, "CLASSIFICATION_TYPE": "U", "NORAD_CAT_ID": 33844, "ELEMENT_SET_NO": 999, "REV_AT_EPOCH": 87724, "BSTAR": 0.00056415877, "MEAN_MOTION_DOT": 1.56e-05, "MEAN_MOTION_DDOT": 0}, "tle": {"line1": "1 33844U 93036CM  25346.64453963  .00001560  00000+0  56416-3 0  9999", "line2": "2 33844  74.0670  52.9526 0047064  74.9418  40.0286 14.33716094877247"}}, "geometry": {"type": "Point", "coordinates": [-126.50017853636118, -7.750452345847189]}}, {"type": "Feature", "properties": {"norad_id": 33848, "name": "COSMOS 2251 DEB", "group": "cosmos-2251-debris", "lat": 35.58321063928218, "lon": 7.928162453607339, "alt_km": 713.9443217129083, "timestamp": "2025-12-13T13:34:35.433418+00:00", "meta": {"OBJECT_NAME": "COSMOS 2251 DEB", "OBJECT_ID": "1993-036CR", "EPOCH": "2025-12-12T09:41:44.709216", "MEAN_MOTION": 14.44057856, "ECCENTRICITY": 0.00410985, "INCLINATION": 74.0327, "RA_OF_ASC_NODE": 358.2675, "ARG_OF_PERICENTER": 54.2212, "MEAN_ANOMALY": 66.4367, "EPHEMERIS_TYPE": 0, "CLASSIFICATION_TYPE": "U", "NORAD_CAT_ID": 33848, "ELEMENT_SET_NO": 999, "REV_AT_EPOCH": 87826, "BSTAR": 0.0015651069, "MEAN_MOTION_DOT": 5.389e-05, "MEAN_MOTION_DDOT": 0}, "tle": {"line1": "1 33848U 93036CR  25346.40398969  .00005389  00000+0  15651-2 0  9999", "line2": "2 33848  74.0327 358.2675 0041098  54.2212  66.4367 14.44057856878262"}}, "geometry": {"type": "Point", "coordinates": [7.928162453607339, 35.58321063928218]}}, {"type": "Feature", "properties": {"norad_id": 33892, "name": "COSMOS 2251 DEB", "group": "cosmos-2251-debris", "lat": -71.63850402874908, "lon": -18.31725607737101, "alt_km": 872.172771581053, "timestamp": "2025-12-13T13:34:35.433427+00:00", "meta": {"OBJECT_NAME": "COSMOS 2251 DEB", "OBJECT_ID": "1993-036CV", "EPOCH": "2025-12-12T18:30:23.008896", "MEAN_MOTION": 14.23339331, "ECCENTRICITY": 0.01128404, "INCLINATION": 73.8026, "RA_OF_ASC_NODE": 102.0002, "ARG_OF_PERICENTER": 133.2353, "MEAN_ANOMALY": 17.0918, "EPHEMERIS_TYPE": 0, "CLASSIFICATION_TYPE": "U", "NORAD_CAT_ID": 33892, "ELEMENT_SET_NO": 999, "REV_AT_EPOCH": 86955, "BSTAR": 0.0013177654, "MEAN_MOTION_DOT": 3.165e-05, "MEAN_MOTION_DDOT": 0}, "tle": {"line1": "1 33892U 93036CV  25346.77109964  .00003165  00000+0  13178-2 0  9995", "line2": "2 33892  73.8026 102.0002 0112840 133.2353  17.0918 14.23339331869555"}}, "geometry": {"type": "Point", "coordinates": [-18.31725607737101, -71.63850402874908]}}, {"type": "Feature", "properties": {"norad_id": 33894, "name": "COSMOS 2251 DEB", "group": "cosmos-2251-debris", "lat": -41.79673114683248, "lon": -177.10216128102826, "alt_km": 855.2772769140693, "timestamp": "2025-12-13T13:34:35.433436+00:00", "meta": {"OBJECT_NAME": "COSMOS 2251 DEB", "OBJECT_ID": "1993-036CX", "EPOCH": "2025-12-12T23:40:19.599744", "MEAN_MOTION": 13.21305125, "ECCENTRICITY": 0.05795168, "INCLINATION": 73.7678, "RA_OF_ASC_NODE": 348.6983, "ARG_OF_PERICENTER": 268.0787, "MEAN_ANOMALY": 85.3877, "EPHEMERIS_TYPE": 0, "CLASSIFICATION_TYPE": "U", "NORAD_CAT_ID": 33894, "ELEMENT_SET_NO": 999, "REV_AT_EPOCH": 80711, "BSTAR": 0.0024730046, "MEAN_MOTION_DOT": 2.441e-05, "MEAN_MOTION_DDOT": 0}, "tle": {"line1": "1 33894U 93036CX  25346.98633796  .00002441  00000+0  24730-2 0  9997", "line2": "2 33894  73.7678 348.6983 0579516 268.0787  85.3877 13.21305125807117"}}, "geometry": {"type": "Point", "coordinates": [-177.10216128102826, -41.79673114683248]}}, {"type": "Feature", "properties": {"norad_id": 33896, "name": "COSMOS 2251 DEB", "group": "cosmos-2251-debris", "lat": -41.732141870098225, "lon": 140.12046002955515, "alt_km": 746.4856839197555, "timestamp": "2025-12-13T13:34:35.433445+00:00", "meta": {"OBJECT_NAME": "COSMOS 2251 DEB", "OBJECT_ID": "1993-036CZ", "EPOCH": "2025-12-12T21:39:09.807840", "MEAN_MOTION": 14.19039461, "ECCENTRICITY": 0.01264824, "INCLINATION": 73.7657, "RA_OF_ASC_NODE": 156.388, "ARG_OF_PERICENTER": 332.0573, "MEAN_ANOMALY": 196.3376, "EPHEMERIS_TYPE": 0, "CLASSIFICATION_TYPE": "U", "NORAD_CAT_ID": 33896, "ELEMENT_SET_NO": 999, "REV_AT_EPOCH": 86742, "BSTAR": 0.00091027113, "MEAN_MOTION_DOT": 2.031e-05, "MEAN_MOTION_DDOT": 0}, "tle": {"line1": "1 33896U 93036CZ  25346.90219685  .00002031  00000+0  91027-3 0  9997", "line2": "2 33896  73.7657 156.3880 0126482 332.0573 196.3376 14.19039461867423"}}, "geometry": {"type": "Point", "coordinates": [140.12046002955515, -41.732141870098225]}}, {"type": "Feature", "properties": {"norad_id": 33899, "name": "COSMOS 2251 DEB", "group": "cosmos-2251-debris", "lat": 70.73938478617073, "lon": -150.76265990526008, "alt_km": 654.0191685568416, "timestamp": "2025-12-13T13:34:35.433454+00:00", "meta": {"OBJECT_NAME": "COSMOS 2251 DEB", "OBJECT_ID": "1993-036DC", "EPOCH": "2025-12-12T17:58:00.463872", "MEAN_MOTION": 14.6119176, "ECCENTRICITY": 0.00567285, "INCLINATION": 74.0537, "RA_OF_ASC_NODE": 85.7085, "ARG_OF_PERICENTER": 148.4646, "MEAN_ANOMALY": 336.6309, "EPHEMERIS_TYPE": 0, "CLASSIFICATION_TYPE": "U", "NORAD_CAT_ID": 33899, "ELEMENT_SET_NO": 999, "REV_AT_EPOCH": 88839, "BSTAR": 0.0015173738, "MEAN_MOTION_DOT": 7.625e-05, "MEAN_MOTION_DDOT": 0}, "tle": {"line1": "1 33899U 93036DC  25346.74861648  .00007625  00000+0  15174-2 0  9996", "line2": "2 33899  74.0537  85.7085 0056728 148.4646 336.6309 14.61191760888396"}}, "geometry": {"type": "Point", "coordinates": [-150.76265990526008, 70.73938478617073]}}, {"type": "Feature", "properties": {"norad_id": 33900, "name": "COSMOS 2251 DEB", "group": "cosmos-2251-debris", "lat": 49.072543701580315, "lon": 158.99089575530164, "alt_km": 662.9847667242484, "timestamp": "2025-12-13T13:34:35.433463+00:00", "meta": {"OBJECT_NAME": "COSMOS 2251 DEB", "OBJECT_ID": "1993-036DD", "EPOCH": "2025-12-12T23:56:05.183808", "MEAN_MOTION": 14.58348781, "ECCENTRICITY": 0.00468191, "INCLINATION": 74.0195, "RA_OF_ASC_NODE": 359.3725, "ARG_OF_PERICENTER": 151.4319, "MEAN_ANOMALY": 233.9531, "EPHEMERIS_TYPE": 0, "CLASSIFICATION_TYPE": "U", "NORAD_CAT_ID": 33900, "ELEMENT_SET_NO": 999, "REV_AT_EPOCH": 89040, "BSTAR": 0.00059951341, "MEAN_MOTION_DOT": 2.788e-05, "MEAN_MOTION_DDOT": 0}, "tle": {"line1": "1 33900U 93036DD  25346.99728222  .00002788  00000+0  59951-3 0  9993", "line2": "2 33900  74.0195 359.3725 0046819 151.4319 233.9531 14.58348781890405"}}, "geometry": {"type": "Point", "coordinates": [158.99089575530164, 49.072543701580315]}}, {"type": "Feature", "properties": {"norad_id": 33901, "name": "COSMOS 2251 DEB", "group": "cosmos-2251-debris", "lat": -70.81252956020182, "lon": -9.262807073505284, "alt_km": 528.6310083702774, "timestamp": "2025-12-13T13:34:35.433472+00:00", "meta": {"OBJECT_NAME": "COSMOS 2251 DEB", "OBJECT_ID": "1993-036DE", "EPOCH": "2025-12-12T20:30:26.787744", "MEAN_MOTION": 15.1596496, "ECCENTRICITY": 0.00317328, "INCLINATION": 73.7739, "RA_OF_ASC_NODE": 49.0528, "ARG_OF_PERICENTER": 181.2317, "MEAN_ANOMALY": 178.8804, "EPHEMERIS_TYPE": 0, "CLASSIFICATION_TYPE": "U", "NORAD_CAT_ID": 33901, "ELEMENT_SET_NO": 999, "REV_AT_EPOCH": 89515, "BSTAR": 0.0041727748, "MEAN_MOTION_DOT": 0.00081984, "MEAN_MOTION_DDOT": 0}, "tle": {"line1": "1 33901U 93036DE  25346.85447671  .00081984  00000+0  41728-2 0  9992", "line2": "2 33901  73.7739  49.0528 0031732 181.2317 178.8804 15.15964960895151"}}, "geometry": {"type": "Point", "coordinates": [-9.262807073505284, -70.81252956020182]}}]}